#aV2022 10 23  0  0  0.00000000     288 DD+AD WGS84 FIT  NGA
## 2233      0.00000000   300.00000000 59875 0.0000000000000
+   32     1  2  3  4  5  6  7  8  9 10 11 12 13 14 15 16 17
+         18 19 20 21 22 23 24 25 26 27 28 29 30 31 32  0  0
+          0  0  0  0  0  0  0  0  0  0  0  0  0  0  0  0  0
+          0  0  0  0  0  0  0  0  0  0  0  0  0  0  0  0  0
+          0  0  0  0  0  0  0  0  0  0  0  0  0  0  0  0  0
++         2  2  2  2  2  2  2  2  2  2  2  2  2  2  2  2  2
++         2  2  2  2  2  2  2  2  2  2  2  2  2  2  2  0  0
++         0  0  0  0  0  0  0  0  0  0  0  0  0  0  0  0  0
++         0  0  0  0  0  0  0  0  0  0  0  0  0  0  0  0  0
++         0  0  0  0  0  0  0  0  0  0  0  0  0  0  0  0  0
%c cc cc ccc ccc cccc cccc cccc cccc ccccc ccccc ccccc ccccc
%c cc cc ccc ccc cccc cccc cccc cccc ccccc ccccc ccccc ccccc
%f  0.0000000  0.000000000  0.00000000000  0.000000000000000
%f  0.0000000  0.000000000  0.00000000000  0.000000000000000
%i    0    0    0    0      0      0      0      0         0
%i    0    0    0    0      0      0      0      0         0
/*      NGA, ST. LOUIS,MO.                                  
/*   EPHEMERIS COMPUTED FROM 2 DAYS OF DATA                 
/*   EPOCHA v8 SMOOTHER                                     
/*   G2139 IERS2010 SATIGS SATAPC                           
*  2022 10 23 18 35  0.00000000
P  1 -14969.057695   -200.961627  21668.433173    262.888153                    
V  1  -8077.589702 -26949.517601  -5422.424457     -0.059782                    
P  2  15522.512375   -210.379664 -20906.943051   -641.107911                    
V  2  10050.064650  26176.661687   7158.332531      0.016392                    
P  3 -20512.978610   7880.373048  14719.538550   -367.348307                    
V  3  11290.797495 -15292.595629  23824.108895     -0.036501                    
P  4 -25099.369336     98.852770  -8841.935267    -98.763613                    
V  4 -10266.925711  -5111.831993  28981.710051      0.062981                    
P  5  15996.026678   3666.983663 -21080.447157   -101.516563                    
V  5 -16236.230562  20746.785743  -8665.532781     -0.014632                    
P  6   6080.254819  25647.768351   2969.451092    499.415264                    
V  6  -3000.598457  -2918.811382  32115.221313      0.104271                    
P  7  -8839.437162  16025.471598 -18649.429962    295.679149                    
V  7  -9349.339992 -23011.333108 -15489.685508     -0.040196                    
P  8 -26028.110834  -6025.579312  -1567.968079    -90.267892                    
V  8   2348.809426  -2083.629182 -31448.047769     -0.017941                    
P  9 -17854.431796   9184.606397 -17489.096436   -279.119139                    
V  9 -21329.721447  -5860.842542  18740.568583      0.053309                    
P 10   8470.989216 -21897.690590  12258.903938     -8.760520                    
V 10  11882.093918 -10054.283712 -26804.004712     -0.016539                    
P 11  12088.884126  22032.679531  -8648.769423    -29.470286                    
V 11    455.499514  11235.340306  29207.628545     -0.048583                    
P 12  20995.026906  -6144.664389  14723.798950   -295.707611                    
V 12 -12384.583014  14807.217725  23516.150710     -0.044707                    
P 13  21704.455739  13492.226721  -7752.632482    411.476058                    
V 13  -9738.129363  -1158.588006 -29765.617735      0.069817                    
P 14 -10899.832035  21856.081808  10306.960905    -91.893522                    
V 14 -11170.497217   7465.982325 -27775.990703      0.042306                    
P 15  26454.204563   3451.906274  -1900.491689    -18.458623                    
V 15  -2142.125936   3327.050897 -30768.374090      0.031579                    
P 16 -11458.608127 -10083.172485 -22031.400170   -526.551003                    
V 16  20028.857498 -18505.691784  -1520.444764     -0.003793                    
P 17  -4246.006743  14458.784861  22313.366265    671.481033                    
V 17 -26221.996040  -7305.330995   -195.766211      0.035157                    
P 18   7688.465588 -17582.620075 -18303.768064      4.256493                    
V 18   8110.382942  21841.839036 -17713.535778     -0.135561                    
P 19   8059.735484  16319.863893  19200.362410    227.730606                    
V 19 -23850.762549  -6718.543806  15284.440748      0.050563                    
P 20   6859.799833  16095.711723 -20031.644802    475.991628                    
V 20 -14690.300359  20819.083989  11462.725926     -0.030827                    
P 21 -17778.994419  -8917.523187  18560.827991    157.494804                    
V 21  -7639.669389 -20722.767875 -17129.777177     -0.007146                    
P 22 -10734.425969 -16557.342448  18282.747903    351.114309                    
V 22  21740.650714   5149.272603  17669.597911      0.070017                    
P 23  16058.203450 -20970.615649   1966.214253     -1.111887                    
V 23   3623.580685   -220.499353 -31928.714321     -0.000990                    
P 24  17300.752734   3905.584602  19559.087312     88.415537                    
V 24   8700.852321  24036.081305 -11870.719510     -0.149207                    
P 25  19889.835916 -16265.316159   5831.422241    385.385771                    
V 25  -2821.713287   7976.105630  30626.834415      0.038601                    
P 26  -3467.741509 -18160.584098 -19041.468578    233.490235                    
V 26  16472.091157 -17801.868723  14371.576445      0.012861                    
P 27 -20109.664045 -12848.957387 -12290.012880    192.811889                    
V 27  15135.204833   1409.647724 -26325.039977     -0.069996                    
P 28  -3397.792750  19919.098296  17867.451359    325.033425                    
V 28 -16734.444949  13701.403742 -18751.160041     -0.054686                    
P 29  19555.539145  -6146.624024 -16976.918513   -561.892889                    
V 29  20145.636591   7349.264340  20515.785129     -0.028750                    
P 30   -842.301897  24087.909988 -10779.447920   -537.146216                    
V 30  -7303.249416 -12351.379595 -27057.542862      0.001306                    
P 31  -6613.074634 -25416.589591   1346.279668   -197.788727                    
V 31   3806.859548    858.562459  31874.710558     -0.012722                    
P 32     -6.914402 -15553.728721  21694.029644   -272.707898                    
V 32  26680.719182   5212.949961   3578.419599     -0.121145                    
EOF
